{"type":"FeatureCollection","features":[{"type":"Feature","geometry":{"type":"Polygon","coordinates":[[[2.706281924167022,6.425604724411079],[2.706473687846862,6.424057425579088],[2.7065985470568465,6.4230318562345],[2.708301929938943,6.409360253915224],[2.709193736812045,6.3815176488968115],[2.7093854365402312,6.3756762002379315],[2.7093899123248066,6.375676176862794],[2.7118022706487155,6.375952681327058],[2.71433955700734,6.3762290889468005],[2.7195522583390854,6.376826651573036],[2.723119532557278,6.377178897685292],[2.727645486399486,6.377776416538539],[2.729250744963568,6.378097484331357],[2.731819181716535,6.378186659803115],[2.734146849215022,6.378543412874734],[2.7356629917846234,6.378663831668544],[2.738646083430105,6.379033899148101],[2.742110806296353,6.37957346308662],[2.745838617670896,6.380072835637219],[2.749272133863169,6.380532127280101],[2.754257419266588,6.381151972076967],[2.7576953468981906,6.381535416875309],[2.7606829500150063,6.382057202490832],[2.7642948151940314,6.382489732120182],[2.766827645398479,6.382864235389158],[2.7731774086529533,6.38372932250959],[2.7795538588128377,6.384594435546723],[2.785288272549281,6.385593216976701],[2.7922132894542435,6.386525164813406],[2.8014792887439777,6.387862909608547],[2.8128098419279004,6.38926757523693],[2.8223166788971676,6.390172766487671],[2.8314890229832406,6.390868345970123],[2.843305667835825,6.391983131580392],[2.849240698830292,6.3925003990239535],[2.857458864945856,6.392892786186461],[2.8635276408948362,6.393035451459997],[2.86806707796391,6.393352035039761],[2.8771547153755614,6.3939361898075955],[2.8890917129187432,6.395135732416981],[2.891669080451778,6.395394342304341],[2.8921818291439685,6.395394314706126],[2.892957778529769,6.395394355865918],[2.8932119125118803,6.395394313456105],[2.8934705411171695,6.395394326907246],[2.8952764872981187,6.39565293399802],[2.8957892748841676,6.395652983622658],[2.8965651308024665,6.395652938583456],[2.8975952329408727,6.3956529282574355],[2.898366624585575,6.39565298665254],[2.8994011833902573,6.395652947736814],[2.9001726043158134,6.395653003263105],[2.901202632223432,6.395652986139264],[2.9017199015604205,6.395653004716316],[2.9048100002914286,6.395657400123336],[2.905327308836135,6.395657414855688],[2.9063573721307105,6.395916039990917],[2.9066159960191458,6.395916046764007],[2.9076460110183344,6.395916016618014],[2.9084174132225002,6.395916059744447],[2.9091933226747146,6.395916076358343],[2.9102233934314423,6.39591604074451],[2.9107361897177095,6.395916075335199],[2.911770712655731,6.395916092699291],[2.9120248709306193,6.395916040768612],[2.9138307593823565,6.395916090769718],[2.9140894238623325,6.395916093561457],[2.921045625090256,6.396174684020603],[2.92980773526241,6.396691904311516],[2.931872296455908,6.396433314820373],[2.9331610157313923,6.39669195833994],[2.9465606363462795,6.3969506008307535],[2.947332058422527,6.397209234767115],[2.9622788946946965,6.397209158996922],[2.963567595810657,6.397467803887771],[2.969239605324564,6.39772643878471],[2.97078693194102,6.397467826244498],[2.9743943004514235,6.397726418571244],[2.9764543809791486,6.397467841491452],[2.977743082568583,6.397726448797505],[2.982126392426728,6.397467849160413],[2.9831564353925724,6.397726473469967],[2.996301881128607,6.397985109010788],[2.997590582543687,6.398243745278135],[3.0037753048857176,6.3982437014274085],[3.004546733741761,6.398502323528347],[3.0267085090498296,6.399015162702431],[3.027997187122507,6.399273719839253],[3.0354705821214734,6.399273769819471],[3.0367592659830773,6.399532385075349],[3.055095146531786,6.4001075801241685],[3.0694935209688494,6.400557943164454],[3.0707821985919272,6.40081663228362],[3.0803157678596444,6.401070767335888],[3.0813458528988944,6.401329429573418],[3.085729140045252,6.401329390930192],[3.0867591877166305,6.401588042245982],[3.095779982895789,6.401583551718037],[3.0960385597170554,6.401712862398221],[3.0960385597170554,6.401200050631655],[3.097581407241992,6.401583543442299],[3.1053135186699348,6.401324974510152],[3.106343601584432,6.40158358219635],[3.1156229865353997,6.4020964043746815],[3.11967630469974,6.402096360048672],[3.138043332096161,6.402091869728997],[3.138301981805824,6.401962605789504],[3.138301981805824,6.4027340383500935],[3.1388192088194753,6.403121928850887],[3.141137957062796,6.403121947602775],[3.142685228814215,6.403380579814352],[3.143456663127797,6.40312195615268],[3.185456901575591,6.404432924373793],[3.1924265242002696,6.404651429311671],[3.2053088845116964,6.4049056094173755],[3.2071147642910183,6.404646963776854],[3.2501540235140634,6.405141922337353],[3.251442749328844,6.40540053845427],[3.294481986984097,6.404089599681628],[3.347126109975953,6.399456602356736],[3.3609136100914068,6.398150102160583],[3.3692922809207357,6.397226997911009],[3.3693190452383717,6.397227066748907],[3.3726053984866224,6.396865810454405],[3.3726678527777048,6.396856887129096],[3.382321759774528,6.39562618778447],[3.3892645735975355,6.394676458109096],[3.3935631708683993,6.393704363543927],[3.394276626310449,6.393633019147348],[3.3942989411959403,6.393628574526689],[3.3952442551676913,6.393534865145159],[3.3965284798880355,6.393499183482688],[3.397875147193914,6.393423432150381],[3.396180660922345,6.39542106114206],[3.3956277723161623,6.396072113055658],[3.395471641079377,6.396281728919295],[3.395467254945299,6.396290597692278],[3.395052497709363,6.396847971439395],[3.3938619560128602,6.398323986302256],[3.39370144437669,6.39970632657159],[3.3943078671529623,6.400642682072078],[3.394454991780223,6.400722983864941],[3.395213013733303,6.401128725960552],[3.3961494958468803,6.401512207715301],[3.3969342461238647,6.401632601274815],[3.3972865336396163,6.399719667527494],[3.3973043866342962,6.399621575520187],[3.397375721724789,6.39924697138639],[3.397589727613891,6.39930055287756],[3.3974916895619294,6.399795449220687],[3.397469373235037,6.399906953185217],[3.397121547649087,6.401703960506187],[3.3969297829080123,6.4033538338705],[3.3966756111251577,6.403674916417581],[3.3965418694281135,6.404566715291058],[3.3965240167088173,6.40594906392621],[3.3958417706380826,6.406435041842397],[3.395271033555742,6.407130700544204],[3.3947359302427014,6.407362558988862],[3.39433464503369,6.40771926653456],[3.3936033370897043,6.407924432156759],[3.3929746086606163,6.408633385984932],[3.3931172664473093,6.409939900481991],[3.3933892715129317,6.410644493959798],[3.3934205117945297,6.410729220372341],[3.393705907301043,6.411371271459797],[3.3939645267609357,6.411995577113241],[3.3947671713755385,6.412686720797437],[3.3951416817637736,6.413012231204517],[3.395511808851678,6.413690007035751],[3.3949366125434266,6.413984297679642],[3.394490695730699,6.4148672682315055],[3.3945352487568026,6.41582149480339],[3.3951282926029753,6.416525983188474],[3.407136671456625,6.4185995173794295],[3.4064678251169784,6.416775734048963],[3.4056919285124434,6.4152284488346485],[3.4049606834632566,6.413253065621114],[3.404273934063164,6.411701296979901],[3.4033687755156254,6.4095564134569925],[3.4029808115168696,6.407754952752212],[3.4025928505614713,6.4059489998768875],[3.402450165429057,6.403862138114821],[3.402441238001881,6.4037863592777535],[3.4023253355159904,6.402074108181418],[3.4029094683395535,6.398310553004057],[3.403052154797105,6.397722027584115],[3.4034088727419824,6.396402111902314],[3.4035917349772387,6.396745422128801],[3.4033687755156254,6.397173561864821],[3.403850329191249,6.397347434611357],[3.403850329191249,6.397552540198308],[3.4052282127630087,6.398310606919799],[3.4152388966227796,6.403750694669601],[3.4249507826222456,6.407469596288773],[3.4231046940325305,6.408298983661255],[3.422328844577289,6.40919971792632],[3.4185921259426486,6.407482965726945],[3.4124519737669767,6.405998117399697],[3.4107441334782016,6.4084595233403565],[3.410628134564867,6.408958907238206],[3.4106148181841185,6.409007989258321],[3.4102491194404543,6.410573124663966],[3.4117161642549356,6.412847255773479],[3.415733806604887,6.416097926252027],[3.4172008600216532,6.418380984776448],[3.4196623156433628,6.4196875275400345],[3.421963213277568,6.420927159386764],[3.4255929299094316,6.421872458557025],[3.4334676874867056,6.4220865216624405],[3.4356125063113527,6.422144501769323],[3.446599736614987,6.421867999350089],[3.4578812522359845,6.42199737013984],[3.4690958961601854,6.421747665903458],[3.4718025381672386,6.421743132829529],[3.476185836650962,6.421738707236718],[3.477474548870123,6.421997320108677],[3.492162830702703,6.4222426093883955],[3.5019550100505774,6.421975064569829],[3.5047909946762856,6.421711984685725],[3.510204375179044,6.42170747526371],[3.5122644229828213,6.421961625132648],[3.5127817428987322,6.422220292238253],[3.521285239490849,6.422211362045956],[3.5225738843597116,6.422599327827032],[3.5225738843597116,6.422082076491204],[3.5236440773679116,6.42201074587087],[3.5260966123942157,6.422175672485017],[3.5272515189065725,6.42215786392516],[3.5332445153313095,6.422224744483707],[3.534564412178601,6.422425389210711],[3.547424446944542,6.422728595398593],[3.5693409837492642,6.423040788844231],[3.57236868034069,6.423196874201283],[3.5797039271461384,6.423571396049166],[3.58458217470852,6.423705204153477],[3.5879755546148773,6.423972704745038],[3.621213678819904,6.4247040168313765],[3.6421580775622298,6.425167757260599],[3.643964022447051,6.424909099736515],[3.6441155970086037,6.424913623501021],[3.654786277008055,6.425408528207457],[3.656592210266479,6.4251499090464845],[3.681848553150398,6.425890150835735],[3.6826199243626405,6.426148746918017],[3.684684505058353,6.426402948372458],[3.6926707280165716,6.426648168634658],[3.6962826599173875,6.426902324401699],[3.697571310138894,6.427156531239327],[3.7068462089606866,6.4271476102611755],[3.7104536547421407,6.427397314602279],[3.711229566373627,6.4276559136397555],[3.7135483120546344,6.427910107041605],[3.7181902265394005,6.4281598285333725],[3.718961609744169,6.428418449143422],[3.719991687953242,6.428414000232195],[3.720508903538343,6.428672591776885],[3.7212803220337505,6.428672607086341],[3.7225690663292337,6.429185433330093],[3.730301135546534,6.429689271876244],[3.731076963725508,6.429947925075297],[3.746541155097961,6.4317315220061895],[3.747317076559557,6.43198569092109],[3.748347110657486,6.431985724051842],[3.751183067036463,6.432752705960031],[3.752213102024374,6.432752649375622],[3.754019104220128,6.433006831863615],[3.7558205203024078,6.4332610415918365],[3.7576264956828638,6.433519673370336],[3.7614924953982127,6.434028000805728],[3.7622639167714773,6.434282183649685],[3.763298439728312,6.434282151375644],[3.764069888497929,6.434540793340716],[3.7650999520840727,6.434536328142221],[3.7658758468367894,6.434794935175291],[3.7676772954386157,6.435049103800305],[3.7694832268046197,6.435303314402069],[3.7705133224835525,6.4353032989291],[3.771289144744985,6.435557437694635],[3.772060637170255,6.435557451559738],[3.7728364830221612,6.4358161310876705],[3.7738665690497366,6.435811646658057],[3.7756679904322787,6.436070249239827],[3.776443891273959,6.436324461897304],[3.7836586992196817,6.437086970071184],[3.789589325717239,6.437595283073872],[3.7903607852096273,6.43759080614482],[3.791136599671449,6.437849460079221],[3.793968193866517,6.438103635986878],[3.794744063238658,6.438357741854734],[3.800157405065719,6.438866101464439],[3.821806351358971,6.439347731450319],[3.830822643827141,6.439075695863822],[3.8380418844413224,6.438803721869712],[3.839071967985257,6.439062340285386],[3.850152829585293,6.438527195181647],[3.850411477148528,6.438268593892527],[3.854018857757537,6.438264160399471],[3.855307546903538,6.438518284104763],[3.858914961741035,6.438513814793395],[3.859173575895195,6.438643121209384],[3.859169149155449,6.438125942329499],[3.8594277645926547,6.43825524787869],[3.8712845479909275,6.437978765921856],[3.871543146879496,6.438103602127734],[3.8715387190713924,6.437590814679152],[3.873085989393546,6.43797426536739],[3.880818068641308,6.437702303264714],[3.8818481578610924,6.437956440204973],[3.8857141680959653,6.438210616262482],[3.8931876532402554,6.437421370309862],[3.9037512622595822,6.437403545522539],[3.9143192968132703,6.436614253960866],[3.9279730724204285,6.435040215725475],[3.9284902978934277,6.435169521494727],[3.928485865176737,6.434652246792599],[3.929003095798684,6.434781551344972],[3.93905392286364,6.433987836718433],[3.9393081180261116,6.4337337290470344],[3.9405967698830278,6.433729199394701],[3.941114044279641,6.433470641323314],[3.9480702165272255,6.433198576115163],[3.9550264709555933,6.4318965773004875],[3.9604353518071393,6.431628972109444],[3.966361470692162,6.430590035328267],[3.9673914825691012,6.4307148456824805],[3.9673914825691012,6.430197594914592],[3.9691974577527414,6.43045176543163],[3.9691974577527414,6.4299389782284555],[3.9694516457523563,6.430068313816501],[3.9764078228875768,6.429279077237698],[3.9782137239128725,6.429403943402175],[3.9782137239128725,6.428891088550259],[3.9784723932623245,6.429016002651983],[3.9813039069611933,6.429011518559016],[3.9815625139196844,6.428752847092398],[3.9869714478446734,6.427713871629536],[3.9885187632415637,6.427709413690827],[3.988777406264459,6.4274508270830495],[3.990066047041551,6.427450804148394],[3.990578833933704,6.427192192439079],[3.9923803242990927,6.426929092918426],[3.992897572365768,6.426670447316861],[3.9936689769078346,6.4266704583878695],[3.993927645665424,6.426799818876667],[3.993927645665424,6.426282533809586],[3.995729096827341,6.426407370025884],[3.9959876980081446,6.426148787791732],[3.9993365480914607,6.425627051900396],[3.999853787771426,6.425368407310823],[4.002172474279782,6.425105319634109],[4.0084821414008225,6.4240395897201585],[4.01453762067644,6.4230184484552835],[4.015050416141351,6.422759839527466],[4.016856340950749,6.422496734095085],[4.017627790622776,6.42249679313892],[4.020205137365717,6.4222336554304205],[4.0204592642703165,6.421975039769428],[4.025872649933795,6.421190247231632],[4.027674120654897,6.421190261724608],[4.027932725385122,6.4209316139606205],[4.028704183907633,6.420927116928417],[4.029475575975087,6.420668510235014],[4.030764293805252,6.420668555502058],[4.031022913928093,6.420409909205828],[4.032570220068629,6.420405411750015],[4.032828849185771,6.42053473629129],[4.032824407517873,6.420017478069029],[4.033341591647158,6.420146803035079],[4.039785045112188,6.419616207713972],[4.040039189933124,6.419745480304688],[4.040039189933124,6.419232657117236],[4.0413278581326395,6.419357538854914],[4.041586530853097,6.419098895504169],[4.046736794224052,6.418572706800933],[4.046995415918549,6.418702100068477],[4.046995415918549,6.418184830043932],[4.050602769253708,6.417792435450205],[4.050856966968048,6.417533751002609],[4.052662890024231,6.4172707233472694],[4.054981675851079,6.417007626342334],[4.055240260592414,6.417136930712377],[4.055235817008978,6.416619632105293],[4.055494403013543,6.416748935610331],[4.0588431961700655,6.416227279595714],[4.059360483285555,6.415968634856616],[4.060649162575869,6.4160934632277336],[4.060644718530501,6.41558071632118],[4.060903331415968,6.415705555308343],[4.061420561041966,6.4157055311213975],[4.062963470241694,6.415188288270408],[4.063997975576966,6.4151838575807085],[4.064252082798521,6.414925182402698],[4.07043243961742,6.414104767815029],[4.075074349559832,6.413484951373499],[4.07506990428325,6.413056868216872],[4.07506990428325,6.412972152858662],[4.075190316821497,6.413030055520525],[4.075328510828802,6.413101436895767],[4.076104416155363,6.413097002603493],[4.084086172607641,6.411919799670102],[4.084086172607641,6.411406983824249],[4.085892156330332,6.411273182621853],[4.09310251804359,6.409966722183708],[4.098511372442949,6.40892767935143],[4.098654075547769,6.408780556249531],[4.098770017231269,6.408669069257254],[4.105467607907827,6.407621203991325],[4.1057217612341015,6.407362552802611],[4.109471856537686,6.40696128470677],[4.1106178680712455,6.406836404440475],[4.112669045646533,6.406421664775434],[4.11834545909265,6.405275741193002],[4.118858263220977,6.405017059123588],[4.123076560708533,6.404317035754585],[4.147191358577296,6.400312711501909],[4.161616557215512,6.397186935268791],[4.161870748971627,6.396928236848648],[4.165219570847775,6.396406588243705],[4.191492593706972,6.391448039134476],[4.1922639699328705,6.391448023820144],[4.19303543563796,6.391189443931297],[4.194065481149788,6.391184978376569],[4.1994743718766046,6.390141519608758],[4.201021669404497,6.390137053707156],[4.201534422557338,6.389878465171177],[4.206689202186856,6.389481584484616],[4.206684745724971,6.388964277501384],[4.206943377505755,6.389093595493],[4.208232020690104,6.389089188135212],[4.208490660072176,6.389218505281972],[4.208490660072176,6.388701246294089],[4.208749300724794,6.388830562573788],[4.2102921014086165,6.3889554220561395],[4.2102921014086165,6.388442622577519],[4.2105507509101505,6.3885674808589155],[4.212352262725059,6.388692334183933],[4.212352262725059,6.388179538047133],[4.214929610791509,6.388041302184409],[4.215188204872587,6.388170613489951],[4.215188204872587,6.387657823261555],[4.215442421216575,6.387653320984101],[4.215446878419646,6.388170611969869],[4.215959615682864,6.38778263019835],[4.217506928568346,6.387778199811061],[4.217761156101334,6.387907544580805],[4.217761156101334,6.387390220792707],[4.219567059267067,6.387515093020038],[4.221368566619305,6.3872564403905985],[4.221885819256588,6.386993358135152],[4.222915881924914,6.3871226856616925],[4.223169979136799,6.386346788795233],[4.22342861366023,6.386346784100163],[4.22342861366023,6.386864095963464],[4.228578887949706,6.3862041716224835],[4.229096133119059,6.38594554535029],[4.2301261802328165,6.3859454700052405],[4.230897653252908,6.385686871607567],[4.239655284787945,6.384634564959984],[4.2434767657406605,6.384367002994386],[4.243521361488677,6.384366961389078],[4.2517617373579935,6.383314607090197],[4.26011367089838,6.382913299836538],[4.26309681857168,6.382770625571168],[4.291175730526702,6.3801263992956745],[4.291429921201936,6.379867749844249],[4.292460008896682,6.379863262949599],[4.29297725297052,6.380121917291545],[4.2961476269697805,6.37966711123268],[4.325943346594566,6.37539523730083],[4.326460603682535,6.375136673635917],[4.328262148888014,6.374873542005357],[4.328516282167573,6.374614908968265],[4.331686663655242,6.374106587353563],[4.331691130659926,6.374106631014744],[4.3334123660320065,6.373830148721978],[4.333666523934467,6.373571519093715],[4.334955200783762,6.373571515500129],[4.336502547710132,6.373049779794075],[4.340622755748558,6.372523599479942],[4.340876869728725,6.372264974601122],[4.34225923341823,6.372064286477343],[4.34235729199363,6.372813437360135],[4.343084153879015,6.37831149084373],[4.3422726370977305,6.3852453960892],[4.342798753781551,6.389392405675593],[4.34310202572951,6.3937667872132025],[4.344774167699206,6.397432184624363],[4.3469145108361085,6.401084191763835],[4.346990314927274,6.405931190681843],[4.348234395426344,6.411447094159445],[4.347846508859347,6.416066764709211],[4.347043856041204,6.42345990804926],[4.342557955988611,6.431611191130603],[4.338647339205284,6.4326010778704745],[4.332939712367854,6.43662315250286],[4.328333459676369,6.437390148190803],[4.322090680231693,6.4368059806884785],[4.316333984716779,6.437595295654422],[4.310086818611016,6.436779291575056],[4.303598826591552,6.435276570311857],[4.295483276047654,6.43333686688103],[4.2924867128199065,6.433617788267992],[4.2881480108414225,6.436462684035116],[4.284487101219011,6.438603034252131],[4.277566563989595,6.438950874427636],[4.273424085410309,6.439713352868674],[4.265134622135355,6.441238376430873],[4.26006013919495,6.441554938682529],[4.257531845368687,6.442058807406243],[4.25357216954203,6.439820400654488],[4.253340306181902,6.439824836247972],[4.250312559899521,6.438259681222622],[4.24704407515312,6.436007817521311],[4.243311761800539,6.433764937003105],[4.239369893554385,6.432681358784259],[4.236846110236004,6.433644478305948],[4.229943384315028,6.434915314782579],[4.2283470561346315,6.436328922813491],[4.2203652799004985,6.442464630235517],[4.211812662812426,6.4562209731365545],[4.206283431151389,6.456773873684654],[4.2019491472787855,6.460078068278624],[4.198261456264987,6.460372381026364],[4.191117969534249,6.4614158192499715],[4.186293270750029,6.462882813362977],[4.178240118808541,6.464403382844099],[4.174811079793735,6.466771157957014],[4.16698976438346,6.46851915868708],[4.163101495068163,6.470659487938981],[4.159458398532922,6.473954742123038],[4.157643545495485,6.4758276263667325],[4.155824225005528,6.47747299639486],[4.152176635413543,6.48053640026207],[4.151061890943348,6.482864067419066],[4.150874605576683,6.48563313320118],[4.148667375334733,6.491902659672472],[4.149666170258155,6.496727436401445],[4.151342820248108,6.500392823190979],[4.155124148678476,6.505864147326154],[4.15771040821006,6.508588622706179],[4.166561721909667,6.513511500049584],[4.169812400899069,6.514608374709002],[4.177009408417284,6.517257131599862],[4.181200974508861,6.5192592476809565],[4.183296726674559,6.520378449557129],[4.1881839096704025,6.522831007278885],[4.19097978211354,6.524400617466411],[4.196330667371509,6.527076090616125],[4.198422019796154,6.5277359943892765],[4.202840992397819,6.5297336799241155],[4.211001123086282,6.534901793490315],[4.214064537974473,6.5385404153356985],[4.215491450471097,6.541287170243664],[4.217850304157933,6.544243603671501],[4.220891438017917,6.546731778160368],[4.2211723497939815,6.54995573685379],[4.220530212074488,6.552965567445289],[4.220320625522081,6.554352380939307],[4.219879167022006,6.555511750455057],[4.218996261116481,6.558066803443195],[4.218791216352399,6.559685479282685],[4.2190632019139755,6.562218197342034],[4.215910585992617,6.567114292014029],[4.214577339977935,6.5703694816908875],[4.213217307420022,6.572005956403605],[4.21186622377961,6.574106160764649],[4.211308801431544,6.574797335879032],[4.2096009942966335,6.576910944399267],[4.208700199560023,6.578311158248056],[4.205311313420565,6.58275237759024],[4.2028052651419765,6.5848748928441845],[4.201900130633373,6.586043193532928],[4.199831075698138,6.586770074220483],[4.196834541719962,6.587050927004613],[4.193137985933464,6.586881549558983],[4.186667782388353,6.586533711816275],[4.17858347261743,6.586208166924074],[4.172345160615374,6.585851459605819],[4.160528561675873,6.583287446593829],[4.150785414865828,6.580451506593523],[4.1461523926676795,6.579376857119084],[4.139401334305042,6.576032529816238],[4.135463970138441,6.57517639810426],[4.1310449679012855,6.573178710481444],[4.12704515572473,6.56863043784037],[4.121908263832917,6.565027493172435],[4.120739993057127,6.564122250313333],[4.113962164726694,6.559163737572521],[4.110680300473661,6.555988854568886],[4.107625804612183,6.55258215157969],[4.097838043756088,6.546981516687098],[4.094101344448041,6.544506658842547],[4.089718056238062,6.54458245854117],[4.087635641665242,6.5443863148996915],[4.08603037871256,6.544876805343488],[4.084429533245604,6.546058426597076],[4.083747338247413,6.546531143258054],[4.08195032053834,6.549790745504492],[4.0810673951674445,6.552341321137133],[4.079484406697659,6.554214117950985],[4.077446621609608,6.556787056137509],[4.076305081861782,6.557500502076349],[4.074240515894542,6.558459247211084],[4.070566176111626,6.559672092954526],[4.067119315340229,6.560653067156116],[4.0643591372401895,6.561393256047929],[4.061826380167023,6.561669727948385],[4.058834308388149,6.562182538620261],[4.057938053543214,6.56404203994249],[4.0577552337955245,6.566811066338495],[4.057795305958178,6.5693483420861885],[4.058544442788865,6.572799690731169],[4.059034985518122,6.574636861326127],[4.058428512593728,6.579952097148069],[4.058245691122853,6.582953079883857],[4.058058426469786,6.585726626810355],[4.056020622095894,6.588299500541814],[4.054914788599337,6.591313875658222],[4.052613857141759,6.591817741440763],[4.050562702631348,6.593467630448084],[4.049697614099942,6.597173122042785],[4.048096793959259,6.598122871165379],[4.047704410741995,6.602283262970084],[4.046375598989498,6.6057658298659545],[4.048047765381867,6.609426730452422],[4.04786934540065,6.612659579286096],[4.048863719170752,6.617025058342427],[4.050081126072087,6.6209267800872835],[4.05245779412561,6.625038043044166],[4.055044041664448,6.627994435230264],[4.058321548311908,6.630705576155257],[4.06047522136419,6.635516953488172],[4.061411672819879,6.636190258131487],[4.061407228709406,6.635958352389241],[4.063525319171712,6.638459943255744],[4.065857376723444,6.6400384642538395],[4.072813624427399,6.641764133548037],[4.074895992883069,6.642192220441969],[4.0791098032857525,6.645808556623402],[4.081227911759583,6.648310060867454],[4.08357784389299,6.650807215929054],[4.084995825834396,6.652862838157097],[4.08713172465413,6.656283003103976],[4.089263186456538,6.659707594064969],[4.0923265937704585,6.663578064090849],[4.094235141673288,6.667466396636863],[4.091809369340599,6.674431469985828],[4.089316700342604,6.677472582630753],[4.085464074888572,6.68192279444922],[4.079720728785968,6.683635052441395],[4.0746596926731184,6.684642819263697],[4.068207317492896,6.68544551763862],[4.062807376181026,6.6854990146984505],[3.9830050382236832,6.6862771332333235],[3.903202727486351,6.687055206006148],[3.8009310414102697,6.688051860142487],[3.6986593262135665,6.689048457415977],[3.678682548648483,6.6892402140115514],[3.573235987577062,6.690267973845256],[3.4677893685451315,6.6912958214693115],[3.4631697888280186,6.69114422944294],[3.4599279632258444,6.690506583259558],[3.4615511226304436,6.6911709612537855],[3.4615555916700185,6.691402885007563],[3.461100753376271,6.691639165416228],[3.458550099234518,6.6909925938582315],[3.4562403385008147,6.6910327771136044],[3.4492529244216024,6.687229092509671],[3.4452753911776184,6.683835742493292],[3.4457346291622337,6.683826843625855],[3.444102666700578,6.6827031534825405],[3.442002384516532,6.6813520277833005],[3.4387249727753333,6.6786408873073535],[3.435425213131242,6.674547441117286],[3.434190035408096,6.669490800464053],[3.4361966468634404,6.664844408688996],[3.4365667729686997,6.659301763513373],[3.439710414797025,6.653710050454988],[3.443594302140713,6.6511059712907326],[3.44093225145985,6.650133876972044],[3.437552249119844,6.648903177049872],[3.4320809321932852,6.648497359279399],[3.37144600892125,6.644029395579529],[3.3698184946802603,6.6433649526351735],[3.36983633774741,6.644519857979149],[3.3690648617157013,6.644724967045257],[3.3689177358152746,6.644765126107938],[3.368266710895726,6.647315706684202],[3.3680571388426075,6.648702497286847],[3.36623778321422,6.65057974511069],[3.363303745506103,6.654548369683754],[3.3619660182214877,6.65757161198661],[3.3619972386216572,6.6594177091133275],[3.3585681880190124,6.661553587229442],[3.3567979303987063,6.666427426172039],[3.354528206081388,6.6687729309076875],[3.353823705530583,6.669196525411889],[3.350180576629863,6.6713859702570355],[3.3456055586801696,6.673999003185293],[3.3392067663390037,6.678030005858017],[3.3373829419492753,6.6794480013704405],[3.3295928854658965,6.6830375418730865],[3.324540763977898,6.6847409767575865],[3.3178833394100367,6.687162254079969],[3.3107933332594612,6.69143409572551],[3.304818134135346,6.693150804693028],[3.2997749343704808,6.695313472716874],[3.2935901321978167,6.69841698194489],[3.288760928866351,6.699652196243831],[3.2823442786604855,6.702532754307837],[3.277060275186872,6.704004247168081],[3.273154102575711,6.705226073060361],[3.2678700160540397,6.706929441426685],[3.2659882870617913,6.70696512976395],[3.2634867694135443,6.707005236693326],[3.258167047185926,6.706403245758027],[3.2528428395499223,6.70557390414822],[3.252147239516724,6.705355404605528],[3.2523925321556013,6.706501328401902],[3.2516701615187404,6.705110116506981],[3.250252151765727,6.702385628637255],[3.2483436348148924,6.698729188995561],[3.2459669157698006,6.694386007307768],[3.244067388164604,6.691188783946599],[3.241217966751151,6.686390810878331],[3.238355288345601,6.680674266261382],[3.235978518322542,6.676331123651725],[3.232892886089791,6.671078259469722],[3.230502807551582,6.666043958635212],[3.2314971255206055,6.656104605142615],[3.2302664443164444,6.651511745512228],[3.2309219294706266,6.64919301530907],[3.231782501970053,6.645255623433527],[3.231497125520605,6.641799816969859],[3.2307435433794955,6.638121037656555],[3.2302307828634818,6.634901568961385],[3.22994986355484,6.631677664376755],[3.22896439637512,6.628003314159851],[3.2280146089035098,6.6261751534590365],[3.226837388903657,6.624810649676432],[3.225655749630347,6.623214277521254],[3.222150876371942,6.620507630760982],[3.219341684557537,6.618246871593254],[3.2165145605164676,6.614603712807561],[3.2123185314261455,6.612137871210142],[3.209058925154436,6.610345336739087],[3.2060267365116095,6.608552748650292],[3.2025263402596025,6.6063053904318],[3.198794123592411,6.603830546514077],[3.197621364524079,6.602697972654727],[3.195289265859546,6.601355770347545],[3.1940942139718667,6.598604476714302],[3.193126560713651,6.5960851380454875],[3.1928545913088078,6.593320453721608],[3.1918735522850907,6.589877994448462],[3.1918156193383456,6.586185933538124],[3.191075371090283,6.5834301784606595],[3.1905804225658043,6.581133761858496],[3.190272758541141,6.57652301478544],[3.189768852749827,6.5739947434279165],[3.1897332209229217,6.571689323376735],[3.1899070891597052,6.56822466387997],[3.1893675555966325,6.563390946515445],[3.190009693932975,6.560149212753686],[3.1878604028588717,6.555569749728031],[3.1864424085539453,6.549665849526597],[3.1863710731769124,6.549367069048935],[3.18585379904551,6.545915783588259],[3.1841637891782866,6.5410999197795645],[3.1829509289636384,6.537661983634409],[3.1808060869284898,6.533546243463746],[3.1808060869284898,6.533314316205617],[3.177292336074657,6.530143937452459],[3.173555620287855,6.52766908211537],[3.1698188854519422,6.524966933160187],[3.169823328030208,6.52519433371731],[3.1688869487486935,6.524520993269069],[3.1658368902160565,6.521341679795036],[3.1628448450090745,6.5220863255833965],[3.1588940531959313,6.5205390229868065],[3.1549522356617157,6.519450951675406],[3.14986883896861,6.519076396109733],[3.145481114574399,6.518920335787975],[3.1410844480040416,6.5183050011058725],[3.1343913057695376,6.518416443901839],[3.129093938174839,6.519428689241984],[3.123569110475974,6.5204453932314435],[3.1178079487243764,6.521007203173396],[3.1152439545696002,6.519437589510308],[3.115012053351634,6.519437631463219],[3.112011056554628,6.5194911583327135],[3.1074137146777665,6.520721794892445],[3.103512035515276,6.5221755156414325],[3.0970507777729237,6.522282556580941],[3.092881508705492,6.521662686336176],[3.0878115091354625,6.521979287294219],[3.083419316464307,6.521823198039163],[3.0829823517818715,6.5219659068330165],[3.080436184147184,6.522799754141402],[3.075339435848185,6.521729595209597],[3.0672505901342664,6.521408562589199],[3.063554002571019,6.521239068330677],[3.060784938687872,6.521288134646276],[3.0563748804195616,6.519745287531349],[3.04990916055927,6.519624876707603],[3.0468992984769425,6.519214676305649],[3.0425115206000886,6.519058602960137],[3.0381282678474,6.5193662683373175],[3.034418257698852,6.51827382607266],[3.026351787927946,6.5193350331330375],[3.0222003170527953,6.519638257952893],[3.0155027288152167,6.519290453082047],[3.0078866310057752,6.519419784769791],[3.0009660988317144,6.519767616208385],[2.9956552919667416,6.519861263269049],[2.9915128101134547,6.520623717504902],[2.9852566471913007,6.519343941192494],[2.9850248372763954,6.519348393734954],[2.9806325642988747,6.518960458133749],[2.9755581389291192,6.5192771006227215],[2.968677744018631,6.521934694570215],[2.963135075868442,6.522028314599017],[2.9564420025538745,6.5221442704801795],[2.955978205460103,6.521921304839582],[2.9557508077403636,6.522153176073832],[2.951349708307117,6.521305962915959],[2.948326432085791,6.519972722229334],[2.944375668872657,6.518193551247228],[2.9404516088766703,6.5182649103527135],[2.9347127384724483,6.520436475635884],[2.9303339276947415,6.520971569613456],[2.926423292122981,6.521729605688732],[2.921143696088259,6.523669266308873],[2.915832912429779,6.523526583669901],[2.9107585118327086,6.523843201300858],[2.9061567205736796,6.524846479677758],[2.9043105983478053,6.52487770715895],[2.900159198790105,6.5251765064353675],[2.8964537059339266,6.524547774289442],[2.89208823476999,6.525778462574499],[2.88702268554887,6.526786215436139],[2.8835490755700897,6.526153042132688],[2.8802983404382725,6.525056056671028],[2.8795581526011054,6.5218365789144],[2.880655114790001,6.518358486468751],[2.8810742481326193,6.516146772437614],[2.8819304184668653,6.511647558320892],[2.8816539601789155,6.50865103403113],[2.881587034825834,6.504499592529916],[2.8805970988039227,6.500366000831353],[2.880342956119726,6.498983756807903],[2.8770699817579626,6.496504457644183],[2.8747244507888583,6.494234764974498],[2.871696747907642,6.492674071366308],[2.867514096031996,6.49089935492548],[2.8647227202760375,6.489561624679843],[2.8614586614310418,6.487773558199692],[2.8556128075705547,6.483029036424209],[2.8528213710972707,6.481691297644571],[2.851416735912421,6.480563154809664],[2.849312067670781,6.478984614215824],[2.845107119841279,6.47582311749758],[2.842061603567606,6.473107523055043],[2.8394930904127786,6.471306094255712],[2.835961498156746,6.46698074593357],[2.8336115344133495,6.464483659950263],[2.8303519752747026,6.462695568802599],[2.827087925471071,6.460902975080823],[2.8245283615540515,6.459565250403409],[2.822677883928786,6.459364604268573],[2.8192309597230056,6.460345576072262],[2.816716072628112,6.462004429221182],[2.814187709959345,6.462508281846022],[2.8130684884846247,6.464835890598614],[2.8089170857130386,6.465134709993095],[2.8050197852049763,6.466820250032956],[2.8009040534451564,6.469196932022844],[2.796106037085653,6.472505566219041],[2.793127359405732,6.473941442474344],[2.7882803612248592,6.474026162440891],[2.786443232608848,6.474516647747905],[2.7848156588895594,6.473852188021607],[2.783647366088935,6.472951498246079],[2.7762719702900216,6.473767469433343],[2.7739621968709733,6.473575770348362],[2.7707159430194523,6.4729380864085035],[2.7674697609163563,6.471841134006136],[2.759840211215644,6.471279337442923],[2.756830335983219,6.470869069471251],[2.7501104315341456,6.469370822998139],[2.7475643032819543,6.468719824062544],[2.7440950790061294,6.468550385843614],[2.740380690265789,6.467226000880747],[2.738070855755056,6.467038692331903],[2.7343876830115317,6.467792280138514],[2.732554933197634,6.468746539921679],[2.7281984262093713,6.470663977655862],[2.7256745813911194,6.4716316197335795],[2.720600134089892,6.471948198982064],[2.7178533228361412,6.473495477917447],[2.717429717709072,6.470748703609053],[2.7107098322479004,6.452600185945676],[2.706281924167022,6.425609189526458],[2.706281924167022,6.425604724411079]]]},"id":"0000000000000000095c","properties":{"Shape_Leng":4.22977320952,"ADM1_CODE":2230,"STATUS":"Member State","ADM0_NAME":"Nigeria","ADM0_CODE":182,"EXP1_YEAR":3000,"Shape_Area":0.309420263027,"ADM1_NAME":"Lagos","STR1_YEAR":1000,"DISP_AREA":"NO"}}]}